NORAD_CAT_ID,OBJECT_NAME,OBJECT_TYPE,EPOCH,MEAN_MOTION,ECCENTRICITY,INCLINATION,RA_OF_ASC_NODE,ARG_OF_PERICENTER,MEAN_ANOMALY,BSTAR,MEAN_MOTION_DOT,MEAN_MOTION_DDOT,TLE_LINE0,TLE_LINE1,TLE_LINE2,SEMIMAJOR_AXIS,PERIOD,APOGEE,PERIGEE,DECAYED
52370.0,STARLINK-3827,PAYLOAD,2022-09-06 22:00:00,15.08829841,0.0002416,53.2167,174.2407,59.1912,139.5734,-0.00082483,-0.00013388,0.0,0 STARLINK-3827,1 52370U 22045AR  22249.91667824 -.00013388  00000-0 -82483-3 0  9995,2 52370  53.2167 174.2407 0002416  59.1912 139.5734 15.08829841 22718,6917.911,95.438,541.448,538.105,0.0
52370.0,STARLINK-3827,PAYLOAD,2022-09-07 14:00:01,15.08829717,0.0002331,53.2168,171.2475,59.8618,162.0667,0.0009257,0.00014471,0.0,0 STARLINK-3827,1 52370U 22045AR  22250.58334491  .00014471  00000-0  92570-3 0  9991,2 52370  53.2168 171.2475 0002331  59.8618 162.0667 15.08829717 22816,6917.9119999999975,95.438,541.389,538.164,0.0
52370.0,STARLINK-3827,PAYLOAD,2022-09-07 22:00:00,15.08841366,0.0002340999999999,53.217,169.752,59.959,173.5522,-0.0020681,-0.00033054,0.0,0 STARLINK-3827,1 52370U 22045AR  22250.91667824 -.00033054  00000-0 -20681-2 0  9990,2 52370  53.2170 169.7520 0002341  59.9590 173.5522 15.08841366  1305,6917.876,95.437,541.361,538.122,0.0
52370.0,STARLINK-3827,PAYLOAD,2022-09-08 06:00:00,15.08808777,0.000241,53.2167,168.2567,55.5504,189.5501,0.0031381,0.00049968,0.0,0 STARLINK-3827,1 52370U 22045AR  22251.25001157  .00049968  00000-0  31381-2 0  9997,2 52370  53.2167 168.2567 0002410  55.5504 189.5501 15.08808777 22913,6917.976,95.44,541.508,538.174,0.0
52370.0,STARLINK-3827,PAYLOAD,2022-09-08 14:00:01,15.08817693,0.0002266999999999,53.2168,166.7587,61.0972,195.5884,0.0025967,0.00041256,0.0,0 STARLINK-3827,1 52370U 22045AR  22251.58334491  .00041256  00000-0  25967-2 0  9998,2 52370  53.2168 166.7587 0002267  61.0972 195.5884 15.08817693  1308,6917.949000000001,95.439,541.382,538.245,0.0
52370.0,STARLINK-3827,PAYLOAD,2022-09-08 22:00:00,15.08865631,0.0002309,53.2169,165.2633,61.5162,206.7535,-0.0015342,-0.0002463999999999,0.0,0 STARLINK-3827,1 52370U 22045AR  22251.91667824 -.00024640  00000-0 -15342-2 0  9990,2 52370  53.2169 165.2633 0002309  61.5162 206.7535 15.08865631 23013,6917.802,95.436,541.264,538.07,0.0
52370.0,STARLINK-3827,PAYLOAD,2022-09-09 14:00:01,15.08821052,0.0002165,53.2165,162.2699,62.0957,229.3949,0.0024894,0.00039533,0.0,0 STARLINK-3827,1 52370U 22045AR  22252.58334491  .00039533  00000-0  24894-2 0  9992,2 52370  53.2165 162.2699 0002165  62.0957 229.3949 15.08821052  1303,6917.938,95.439,541.3009999999998,538.306,0.0
52370.0,STARLINK-3827,PAYLOAD,2022-09-09 22:00:00,15.08855678,0.0002195999999999,53.2165,160.7745,61.2438,241.8358,-0.0027817,-0.00044308,0.0,0 STARLINK-3827,1 52370U 22045AR  22252.91667824 -.00044308  00000-0 -27817-2 0  9994,2 52370  53.2165 160.7745 0002196  61.2438 241.8358 15.08855678  1301,6917.831999999999,95.437,541.217,538.178,0.0
52370.0,STARLINK-3827,PAYLOAD,2022-09-10 14:00:01,15.08817512,0.0002133,53.2161,157.7809,62.4591,263.81,0.0032173,0.00051257,0.0,0 STARLINK-3827,1 52370U 22045AR  22253.58334491  .00051257  00000-0  32173-2 0  9999,2 52370  53.2161 157.7809 0002133  62.4591 263.8100 15.08817512  1302,6917.949000000001,95.439,541.29,538.339,0.0
52370.0,STARLINK-3827,PAYLOAD,2022-09-10 22:00:00,15.08868213,0.0002195,53.2161,156.2856,60.5204,277.3398,-0.0036516999999999,-0.00057984,0.0,0 STARLINK-3827,1 52370U 22045AR  22253.91667824 -.00057984  00000-0 -36517-2 0  9996,2 52370  53.2161 156.2856 0002195  60.5204 277.3398 15.08868213  1309,6917.794,95.436,541.178,538.141,0.0
52370.0,STARLINK-3827,PAYLOAD,2022-09-11 06:00:00,15.08830072,0.0002197,53.2158,154.7899,55.9411,293.5216,0.0015743,0.00024849,0.0,0 STARLINK-3827,1 52370U 22045AR  22254.25001157  .00024849  00000-0  15743-2 0  9995,2 52370  53.2158 154.7899 0002197  55.9411 293.5216 15.08830072 23366,6917.911,95.438,541.2959999999998,538.256,0.0
52370.0,STARLINK-3827,PAYLOAD,2022-09-11 14:00:01,15.08835519,0.0002063,53.2158,153.2917,61.2415,299.8322,0.0018658,0.00029528,0.0,0 STARLINK-3827,1 52370U 22045AR  22254.58334491  .00029528  00000-0  18658-2 0  9998,2 52370  53.2158 153.2917 0002063  61.2415 299.8322 15.08835519  1316,6917.894,95.438,541.186,538.332,0.0
52370.0,STARLINK-3827,PAYLOAD,2022-09-11 22:00:00,15.08860337,0.0002114,53.2159,151.7965,58.5009,314.1763,-0.0032354999999999,-0.00051444,0.0,0 STARLINK-3827,1 52370U 22045AR  22254.91667824 -.00051444  00000-0 -32355-2 0  9998,2 52370  53.2159 151.7965 0002114  58.5009 314.1763 15.08860337  1303,6917.818,95.436,541.146,538.221,0.0
52370.0,STARLINK-3827,PAYLOAD,2022-09-12 06:00:00,15.0882525,0.0002089,53.2157,150.3005,53.1973,331.081,0.00070751,0.00010985,0.0,0 STARLINK-3827,1 52370U 22045AR  22255.25001157  .00010985  00000-0  70751-3 0  9993,2 52370  53.2157 150.3005 0002089  53.1973 331.0810 15.08825250 23527,6917.925,95.438,541.236,538.345,0.0
52370.0,STARLINK-3827,PAYLOAD,2022-09-12 14:00:01,15.08810476,0.0001932,53.2159,148.8023,59.1217,336.7483,0.003745,0.00059772,0.0,0 STARLINK-3827,1 52370U 22045AR  22255.58334491  .00059772  00000-0  37450-2 0  9994,2 52370  53.2159 148.8023 0001932  59.1217 336.7483 15.08810476  1308,6917.971,95.439,541.172,538.499,0.0
52370.0,STARLINK-3827,PAYLOAD,2022-09-12 22:00:00,15.08799595,0.0002038,53.217,147.3047,54.452,353.0179,-0.0027686,-0.00044034,0.0,0 STARLINK-3827,1 52370U 22045AR  22255.91667824 -.00044034  00000-0 -27686-2 0  9997,2 52370  53.2170 147.3047 0002038  54.4520 353.0179 15.08799595 23625,6918.004,95.44,541.279,538.4590000000002,0.0
52370.0,STARLINK-3827,PAYLOAD,2022-09-13 06:00:00,15.08844831,0.0001994,53.2157,145.8111,50.6176,8.4183,-0.00072822,-0.00011861,0.0,0 STARLINK-3827,1 52370U 22045AR  22256.25001157 -.00011861  00000-0 -72822-3 0  9991,2 52370  53.2157 145.8111 0001994  50.6176   8.4183 15.08844831 23675,6917.866,95.437,541.11,538.351,0.0
52370.0,STARLINK-3827,PAYLOAD,2022-09-13 14:00:01,15.08800775,0.0001781999999999,53.216,144.313,56.9672,13.6767,0.0036171999999999,0.00057689,0.0,0 STARLINK-3827,1 52370U 22045AR  22256.58334491  .00057689  00000-0  36172-2 0  9990,2 52370  53.2160 144.3130 0001782  56.9672  13.6767 15.08800775  1300,6918.0,95.44,541.0980000000002,538.632,0.0
52370.0,STARLINK-3827,PAYLOAD,2022-09-13 22:00:00,15.08884426,0.0001902,53.2166,142.8166,53.8153,28.3934,-0.0070297,-0.0011059,0.0,0 STARLINK-3827,1 52370U 22045AR  22256.91667824 -.00110590  00000-0 -70297-2 0  9995,2 52370  53.2166 142.8166 0001902  53.8153  28.3934 15.08884426  1306,6917.745,95.435,540.925,538.294,0.0
52370.0,STARLINK-3827,PAYLOAD,2022-09-14 14:00:01,15.08836273,0.0001805,53.2174,139.8202,64.4141,40.9326,2.2752e-05,7.4e-07,0.0,0 STARLINK-3827,1 52370U 22045AR  22257.58334491  .00000074  00000-0  22752-4 0  9998,2 52370  53.2174 139.8202 0001805  64.4141  40.9326 15.08836273  1301,6917.892,95.438,541.005,538.508,0.0
52370.0,STARLINK-3827,PAYLOAD,2022-09-14 22:00:00,15.08836975,0.0001882,53.2174,138.3255,61.9641,54.9734,-2.9807e-05,-7.62e-06,0.0,0 STARLINK-3827,1 52370U 22045AR  22257.91667824 -.00000762  00000-0 -29807-4 0  9998,2 52370  53.2174 138.3255 0001882  61.9641  54.9734 15.08836975  1302,6917.89,95.438,541.057,538.453,0.0
52370.0,STARLINK-3827,PAYLOAD,2022-09-15 14:00:01,15.08818599,0.0001608,53.216,135.3345,54.8979,85.2488,0.0026568,0.00042224,0.0,0 STARLINK-3827,1 52370U 22045AR  22258.58334491  .00042224  00000-0  26568-2 0  9999,2 52370  53.2160 135.3345 0001608  54.8979  85.2488 15.08818599  1300,6917.946,95.439,540.923,538.698,0.0
52370.0,STARLINK-3827,PAYLOAD,2022-09-15 21:19:50,15.08830882,0.0001652,53.2154,133.9626,37.3612,322.7494,0.00011955,1.615e-05,0.0,0 STARLINK-3827,1 52370U 22045AR  22258.88877895  .00001615  00000-0  11955-3 0  9996,2 52370  53.2154 133.9626 0001652  37.3612 322.7494 15.08830882 24072,6917.908,95.438,540.9159999999998,538.63,0.0
52370.0,STARLINK-3827,PAYLOAD,2022-09-15 22:55:13,15.08828964,0.0001717,53.2167,133.6666,31.7732,328.3364,8.772200000000001e-05,1.108e-05,0.0,0 STARLINK-3827,1 52370U 22045AR  22258.95502175  .00001108  00000-0  87722-4 0  9993,2 52370  53.2167 133.6666 0001717  31.7732 328.3364 15.08828964 24087,6917.9140000000025,95.438,540.967,538.591,0.0
52370.0,STARLINK-3827,PAYLOAD,2022-09-16 03:41:23,15.08832449,0.0001899999999999,53.2175,132.7748,73.1688,286.9512,0.00010268,1.346e-05,0.0,0 STARLINK-3827,1 52370U 22045AR  22259.15374114  .00001346  00000-0  10268-3 0  9990,2 52370  53.2175 132.7748 0001900  73.1688 286.9512 15.08832449 24112,6917.903,95.438,541.0830000000002,538.4540000000002,0.0
52370.0,STARLINK-3827,PAYLOAD,2022-09-16 19:35:14,15.0883612,0.0001530999999999,53.2174,129.8008,54.0114,306.1020000000001,9.2793e-06,-1.4e-06,0.0,0 STARLINK-3827,1 52370U 22045AR  22259.81614292 -.00000140  00000-0  92793-5 0  9994,2 52370  53.2174 129.8008 0001531  54.0114 306.1020 15.08836120 24219,6917.892,95.438,540.816,538.698,0.0
52370.0,STARLINK-3827,PAYLOAD,2022-09-17 00:21:24,15.08836034,0.0001621999999999,53.2175,128.9088,55.4515,304.663,-3.2384e-05,-8.03e-06,0.0,0 STARLINK-3827,1 52370U 22045AR  22260.01486481 -.00000803  00000-0 -32384-4 0  9991,2 52370  53.2175 128.9088 0001622  55.4515 304.6630 15.08836034 24246,6917.893,95.438,540.88,538.635,0.0
52370.0,STARLINK-3827,PAYLOAD,2022-09-17 21:01:25,15.08832133,0.0001527,53.2173,125.0432,55.019,305.0945,-3.0192e-05,-7.68e-06,0.0,0 STARLINK-3827,1 52370U 22045AR  22260.87598804 -.00000768  00000-0 -30192-4 0  9993,2 52370  53.2173 125.0432 0001527  55.0190 305.0945 15.08832133 24378,6917.904,95.438,540.826,538.7130000000002,0.0
52370.0,STARLINK-3827,PAYLOAD,2022-09-18 08:09:07,15.08833672,0.0001675999999999,53.2172,122.9616,49.7629,310.351,-1.7701e-05,-5.700000000000001e-06,0.0,0 STARLINK-3827,1 52370U 22045AR  22261.33966868 -.00000570  00000-0 -17701-4 0  9996,2 52370  53.2172 122.9616 0001676  49.7629 310.3510 15.08833672 24443,6917.9,95.438,540.924,538.605,0.0
